[
    {
        "venue_name": "Stolen Mojo & Sugarbox New Years Eve 2.0! At the Double Tree",
        "address": "Portland",
        "city": "Portland",
        "zip_code": "04101"
    },
    {
        "venue_name": "Plush & Portland Sheraton NYE 2026! Portland's Premiere New ",
        "address": "South Portland",
        "city": "South Portland",
        "zip_code": "04106"
    },
    {
        "venue_name": "Rock the Boat: New Year's Eve at The Boathouse",
        "address": "Kennebunkport",
        "city": "Kennebunkport",
        "zip_code": "04046"
    },
    {
        "venue_name": "New Year's Eve at the Widowmaker with Gina & The Red Eye Fli",
        "address": "Carrabassett Valley",
        "city": "Carrabassett Valley",
        "zip_code": "04947"
    },
    {
        "venue_name": "Evergreen - Portland Art Gallery Holiday Party and Art Openi",
        "address": "Portland",
        "city": "Portland",
        "zip_code": "04101"
    },
    {
        "venue_name": "Christmas for a Cause - The Grinch (2018)",
        "address": "Saco",
        "city": "Saco",
        "zip_code": "04072"
    },
    {
        "venue_name": "Meet & Greet",
        "address": "Waterville",
        "city": "Waterville",
        "zip_code": "04901"
    },
    {
        "venue_name": "Intro to Backcountry Ski and Snowboard Night - #PortlandBack",
        "address": "Portland",
        "city": "Portland",
        "zip_code": "04101"
    },
    {
        "venue_name": "The Holiday Party with Maine Women in Business",
        "address": "Biddeford",
        "city": "Biddeford",
        "zip_code": "04005"
    },
    {
        "venue_name": "Paul Winter's Winter Solstice Celebration",
        "address": "Portland",
        "city": "Portland",
        "zip_code": "04101"
    },
    {
        "venue_name": "A Motown Christmas with Pat Colwell & The Soul Sensations!",
        "address": "Gardiner",
        "city": "Gardiner",
        "zip_code": "04345"
    },
    {
        "venue_name": "Curriculum Workshop: Maple Sugaring in a Changing Climate - ",
        "address": "Portland",
        "city": "Portland",
        "zip_code": "04101"
    },
    {
        "venue_name": "Modern Investor Summit 2025",
        "address": "online",
        "city": "online",
        "zip_code": "04101"
    },
    {
        "venue_name": "HBR Book Webinar:  Leadership Unblocked",
        "address": "online",
        "city": "online",
        "zip_code": "04101"
    },
    {
        "venue_name": "Career Fair: Exclusive Tech Hiring Event-New Tickets Availab",
        "address": "online",
        "city": "online",
        "zip_code": "04101"
    },
    {
        "venue_name": "A POSITIVE APPROACH TO CARE WITH TEEPA SNOW",
        "address": "online",
        "city": "online",
        "zip_code": "04101"
    },
    {
        "venue_name": "Sorted Live: The Last Bite",
        "address": "online",
        "city": "online",
        "zip_code": "04101"
    },
    {
        "venue_name": "#LookCloser: Anti-Racist practice to tackle child exploitati",
        "address": "online",
        "city": "online",
        "zip_code": "04101"
    },
    {
        "venue_name": "Long Island Career Fair",
        "address": "online",
        "city": "online",
        "zip_code": "04101"
    },
    {
        "venue_name": "NASA's Artemis II Mission Launch",
        "address": "online",
        "city": "online",
        "zip_code": "04101"
    },
    {
        "venue_name": "The Bronson Arroyo Band benefit for the Northern Timber Crui",
        "address": "Millinocket",
        "city": "Millinocket",
        "zip_code": "04462"
    },
    {
        "venue_name": "Kennebunkport's Christmas Prelude: Annual Hat Parade",
        "address": "Kennebunkport",
        "city": "Kennebunkport",
        "zip_code": "04046"
    },
    {
        "venue_name": "Lone Pine Book Club December Meeting",
        "address": "Portland",
        "city": "Portland",
        "zip_code": "04101"
    },
    {
        "venue_name": "Oyster Ornament Decoupage with Lady Shuckers at Angoor Wine ",
        "address": "Portland",
        "city": "Portland",
        "zip_code": "04101"
    },
    {
        "venue_name": "ATV & Snowmobile Safety Combination Course - Lewiston",
        "address": "Lewiston",
        "city": "Lewiston",
        "zip_code": "04240"
    },
    {
        "venue_name": "Holly Jolly Mixology",
        "address": "Kennebunkport",
        "city": "Kennebunkport",
        "zip_code": "04046"
    },
    {
        "venue_name": "Curriculum Workshop: Maple Sugaring in a Changing Climate - ",
        "address": "Orono",
        "city": "Orono",
        "zip_code": "04101"
    },
    {
        "venue_name": "Pat Colwell & The Soul Sensations Motown Christmas",
        "address": "Freeport",
        "city": "Freeport",
        "zip_code": "04032"
    },
    {
        "venue_name": "Steve Gunn with Chris Forsyth",
        "address": "Portland",
        "city": "Portland",
        "zip_code": "04101"
    },
    {
        "venue_name": "Dueling Pianos at Top of the East",
        "address": "Portland",
        "city": "Portland",
        "zip_code": "04101"
    },
    {
        "venue_name": "Winter Solstice w/Taylor O'Donnell",
        "address": "Kittery",
        "city": "Kittery",
        "zip_code": "04101"
    },
    {
        "venue_name": "Viva Las Elvis: From Sun To Vegas",
        "address": "Windham",
        "city": "Windham",
        "zip_code": "04101"
    },
    {
        "venue_name": "Canvases & Cocktails",
        "address": "Auburn",
        "city": "Auburn",
        "zip_code": "04101"
    },
    {
        "venue_name": "Sleigh & Sip: Holiday Wine Tasting",
        "address": "Kennebunkport",
        "city": "Kennebunkport",
        "zip_code": "04046"
    },
    {
        "venue_name": "Portland Ugly Sweater Bar Crawl: 8th Annual",
        "address": "Portland",
        "city": "Portland",
        "zip_code": "04101"
    },
    {
        "venue_name": "Apéro Presents: A 1st Birthday Bash!",
        "address": "Biddeford",
        "city": "Biddeford",
        "zip_code": "04005"
    },
    {
        "venue_name": "Sushi 101 with Great Wave",
        "address": "Portland",
        "city": "Portland",
        "zip_code": "04101"
    },
    {
        "venue_name": "Royal Princess Saturday Brunch @ Saltwater Grille",
        "address": "South Portland",
        "city": "South Portland",
        "zip_code": "04106"
    },
    {
        "venue_name": "TRIFECTA NYE at Jimmy The Greeks",
        "address": "Old Orchard Beach",
        "city": "Old Orchard Beach",
        "zip_code": "04101"
    },
    {
        "venue_name": "Grippy Tannins x Embody —  New Years Special Edition",
        "address": "Portland",
        "city": "Portland",
        "zip_code": "04101"
    },
    {
        "venue_name": "AI + CRMS: How technology can help nonprofits in challenging",
        "address": "Portland",
        "city": "Portland",
        "zip_code": "04101"
    },
    {
        "venue_name": "FREE CEU: Mortgage Essentials",
        "address": "Portland",
        "city": "Portland",
        "zip_code": "04101"
    },
    {
        "venue_name": "MEHES December Meeting",
        "address": "Augusta",
        "city": "Augusta",
        "zip_code": "04330"
    },
    {
        "venue_name": "2025 Hanley Center Annual Networking Event: What's Your Why?",
        "address": "Freeport",
        "city": "Freeport",
        "zip_code": "04032"
    },
    {
        "venue_name": "Winter Readiness: Prioritizing Business Preparedness and Res",
        "address": "Scarborough",
        "city": "Scarborough",
        "zip_code": "04074"
    },
    {
        "venue_name": "Portland Hiring Event",
        "address": "Portland",
        "city": "Portland",
        "zip_code": "04101"
    },
    {
        "venue_name": "Union + Co Holiday Party and Open House",
        "address": "Bath",
        "city": "Bath",
        "zip_code": "04101"
    },
    {
        "venue_name": "Portland Career Fair",
        "address": "Portland",
        "city": "Portland",
        "zip_code": "04101"
    },
    {
        "venue_name": "POWERING AHEAD - Holiday Happy Hour",
        "address": "Freeport",
        "city": "Freeport",
        "zip_code": "04032"
    },
    {
        "venue_name": "Winter Wreath Making with Mare Brook Farm at Blind Tiger Gue",
        "address": "Portland",
        "city": "Portland",
        "zip_code": "04101"
    }
]