[
    {
        "venue_name": "Thu, Nov 20",
        "address": "8:00 PM",
        "city": "Portland",
        "zip_code": "04101"
    },
    {
        "venue_name": "Unknown Venue",
        "address": "2.4k followers",
        "city": "Portland",
        "zip_code": "04101"
    },
    {
        "venue_name": "Wed, Dec 31",
        "address": "9:00 PM",
        "city": "Portland",
        "zip_code": "04101"
    },
    {
        "venue_name": "The Boathouse Waterfront Hotel & Restaurant",
        "address": "From $33.85",
        "city": "Portland",
        "zip_code": "04101"
    },
    {
        "venue_name": "Kennebunkport Resort Collection",
        "address": "857 followers",
        "city": "Portland",
        "zip_code": "04101"
    },
    {
        "venue_name": "Unknown Venue",
        "address": "Stolen Mojo & Sugarbox New Years Eve 2.0! At the Double Tree!",
        "city": "Portland",
        "zip_code": "04101"
    },
    {
        "venue_name": "Wed, Dec 31",
        "address": "8:00 PM",
        "city": "Portland",
        "zip_code": "04101"
    },
    {
        "venue_name": "DoubleTree by Hilton Hotel Portland, ME",
        "address": "From $55.20",
        "city": "Portland",
        "zip_code": "04101"
    },
    {
        "venue_name": "Stolen Mojo",
        "address": "59 followers",
        "city": "Portland",
        "zip_code": "04101"
    },
    {
        "venue_name": "Unknown Venue",
        "address": "Plush & Portland Sheraton NYE 2026! Portland's Premiere New Year's Party!",
        "city": "Portland",
        "zip_code": "04101"
    },
    {
        "venue_name": "Unknown Venue",
        "address": "200 Sable Oaks Drive",
        "city": "South Portland",
        "zip_code": "04101"
    },
    {
        "venue_name": "Unknown Venue",
        "address": "From $87.21",
        "city": "Portland",
        "zip_code": "04101"
    },
    {
        "venue_name": "Plush & Sheraton Sable Oaks",
        "address": "32 followers",
        "city": "Portland",
        "zip_code": "04101"
    },
    {
        "venue_name": "Explore more events",
        "address": "Fall Dance Concert 2025",
        "city": "Portland",
        "zip_code": "04101"
    },
    {
        "venue_name": "Tomorrow",
        "address": "7:30 PM + 2 more",
        "city": "Portland",
        "zip_code": "04101"
    },
    {
        "venue_name": "Bates Department of Theater and Dance",
        "address": "279 followers",
        "city": "Portland",
        "zip_code": "04101"
    },
    {
        "venue_name": "Tomorrow",
        "address": "7:30 PM",
        "city": "Portland",
        "zip_code": "04101"
    },
    {
        "venue_name": "The Dance Hall",
        "address": "From $23.55",
        "city": "Portland",
        "zip_code": "04101"
    },
    {
        "venue_name": "The Dance Hall",
        "address": "22 followers",
        "city": "Portland",
        "zip_code": "04101"
    },
    {
        "venue_name": "Going fast",
        "address": "Thomas College Student Leadership Conference 2025",
        "city": "Portland",
        "zip_code": "04101"
    },
    {
        "venue_name": "Saturday",
        "address": "9:00 AM",
        "city": "Portland",
        "zip_code": "04101"
    },
    {
        "venue_name": "Thomas College Student Life",
        "address": "211 followers",
        "city": "Portland",
        "zip_code": "04101"
    },
    {
        "venue_name": "Sales end soon",
        "address": "MDI Drama Presents Cinderella: Sunday",
        "city": "November 16 @2:00pm",
        "zip_code": "04101"
    },
    {
        "venue_name": "Sunday",
        "address": "2:00 PM",
        "city": "Portland",
        "zip_code": "04101"
    },
    {
        "venue_name": "MDI Drama",
        "address": "26 followers",
        "city": "Portland",
        "zip_code": "04101"
    },
    {
        "venue_name": "Sales end soon",
        "address": "28th Annual Otis Lecture: Olúfẹ́mi O. Táíwò",
        "city": "Portland",
        "zip_code": "04101"
    },
    {
        "venue_name": "Monday",
        "address": "7:30 PM",
        "city": "Portland",
        "zip_code": "04101"
    },
    {
        "venue_name": "Unknown Venue",
        "address": "2025 Feztival of Trees - Friday",
        "city": "Portland",
        "zip_code": "04101"
    },
    {
        "venue_name": "Fri, Nov 28",
        "address": "9:00 AM",
        "city": "Portland",
        "zip_code": "04101"
    },
    {
        "venue_name": "Kora Temple",
        "address": "485 followers",
        "city": "Portland",
        "zip_code": "04101"
    },
    {
        "venue_name": "Almost full",
        "address": "Comedian Bob Marley Hermon Maine Friday November 28!",
        "city": "Portland",
        "zip_code": "04101"
    },
    {
        "venue_name": "Fri, Nov 28",
        "address": "7:30 PM",
        "city": "Portland",
        "zip_code": "04101"
    },
    {
        "venue_name": "Morgan Hill Event Center",
        "address": "From $40.79",
        "city": "Portland",
        "zip_code": "04101"
    },
    {
        "venue_name": "COMEDIAN BOB MARLEY",
        "address": "7.6k followers",
        "city": "Portland",
        "zip_code": "04101"
    },
    {
        "venue_name": "Sat, Dec 6",
        "address": "3:00 PM",
        "city": "Portland",
        "zip_code": "04101"
    },
    {
        "venue_name": "Kennebunkport Business Association",
        "address": "11 followers",
        "city": "Portland",
        "zip_code": "04101"
    },
    {
        "venue_name": "Unknown Venue",
        "address": "Fall Dance Concert 2025",
        "city": "Portland",
        "zip_code": "04101"
    },
    {
        "venue_name": "Tuesday",
        "address": "3:00 PM EST",
        "city": "Portland",
        "zip_code": "04101"
    },
    {
        "venue_name": "Nick Bray Architecture",
        "address": "79 followers",
        "city": "Portland",
        "zip_code": "04101"
    },
    {
        "venue_name": "Kaiser Permanente Institute for Health Policy",
        "address": "12 followers",
        "city": "Portland",
        "zip_code": "04101"
    },
    {
        "venue_name": "Tue, Nov 25",
        "address": "12:00 PM EST",
        "city": "Portland",
        "zip_code": "04101"
    },
    {
        "venue_name": "Lifemark Health Group",
        "address": "136 followers",
        "city": "Portland",
        "zip_code": "04101"
    },
    {
        "venue_name": "Almost full",
        "address": "Atelier de formation clinique - Novembre 2025 - Chantal Blais",
        "city": "Portland",
        "zip_code": "04101"
    },
    {
        "venue_name": "Thu, Nov 27",
        "address": "12:00 PM EST",
        "city": "Portland",
        "zip_code": "04101"
    },
    {
        "venue_name": "Société québécoise de lipidologie, de nutrition et de métabolisme",
        "address": "311 followers",
        "city": "Portland",
        "zip_code": "04101"
    },
    {
        "venue_name": "Almost full",
        "address": "7 Quick Wins: Supporting Demand-Avoidant Learners in Your Classroom",
        "city": "Portland",
        "zip_code": "04101"
    },
    {
        "venue_name": "Thu, Nov 27",
        "address": "11:00 AM EST",
        "city": "Portland",
        "zip_code": "04101"
    },
    {
        "venue_name": "Pooky Knightsmith",
        "address": "106 followers",
        "city": "Portland",
        "zip_code": "04101"
    },
    {
        "venue_name": "Thu, Nov 27",
        "address": "6:00 PM EST",
        "city": "Portland",
        "zip_code": "04101"
    },
    {
        "venue_name": "OutGeekWomen - Badass Pros",
        "address": "5.8k followers",
        "city": "Portland",
        "zip_code": "04101"
    }
]